#aV2013  9 28  0  0  0.00000000     288 DD+AD WGS84 FIT  NGA
## 1759 518400.00000000   300.00000000 56563 0.0000000000000
+   31     1  2  3  4  5  6  7  8  9 10 11 12 13 14 15 16 17
+         18 19 20 21 22 23 24 25 26 27 28 29 31 32  0  0  0
+          0  0  0  0  0  0  0  0  0  0  0  0  0  0  0  0  0
+          0  0  0  0  0  0  0  0  0  0  0  0  0  0  0  0  0
+          0  0  0  0  0  0  0  0  0  0  0  0  0  0  0  0  0
++         2  2  2  2  2  2  2  2  2  2  2  2  2  2  2  2  2
++         2  2  2  2  2  2  2  2  2  2  2  2  2  2  2  0  0
++         0  0  0  0  0  0  0  0  0  0  0  0  0  0  0  0  0
++         0  0  0  0  0  0  0  0  0  0  0  0  0  0  0  0  0
++         0  0  0  0  0  0  0  0  0  0  0  0  0  0  0  0  0
%c cc cc ccc ccc cccc cccc cccc cccc ccccc ccccc ccccc ccccc
%c cc cc ccc ccc cccc cccc cccc cccc ccccc ccccc ccccc ccccc
%f  0.0000000  0.000000000  0.00000000000  0.000000000000000
%f  0.0000000  0.000000000  0.00000000000  0.000000000000000
%i    0    0    0    0      0      0      0      0         0
%i    0    0    0    0      0      0      0      0         0
/*      NGA, ST. LOUIS,MO.                                  
/*   EPHEMERIS COMPUTED FROM  1 DAYS OF DATA
/*   EPOCHA SMOOTHER  
/* CCCCCCCCCCCCCCCCCCCCCCCCCCCCCCCCCCCCCCCCCCCCCCCCCCCCCCCCC
*  2013  9 28 14 10  0.00000000                                                 
P  1  13740.953374 -22222.873411   4415.094485     79.533511                    
V  1    207.162134   6339.144554  31158.790088      0.039332                    
P  2 -16842.076860   1816.649286 -20111.226788    453.430241                    
V  2   9187.746579 -24635.598943 -10310.687371      0.017655                    
P  3  19488.979227   1751.269624  17507.508653    265.533087                    
V  3  14578.941748  18311.292541 -17343.479207      0.051527                    
P  4 -11683.186610 -11632.695516 -21080.850396      1.334218                    
V  4  11641.873022 -23506.519764   6877.830971      0.005449                    
P  5 -26568.364443   1672.876112  -1159.125829   -399.436342                    
V  5   1137.076325  -3197.807255 -31331.942067      0.002215                    
P  6  20689.745030   8853.797766  14457.988112     76.215637                    
V  6   9664.140138  15534.788586 -23057.023758      0.186952                    
P  7   4021.393356 -24031.053353  10228.915248    263.626623                    
V  7   7792.160279 -10649.718317 -28560.140745      0.042015                    
P  8  -3418.221140 -18021.737916  19090.694135      8.741105                    
V  8  13536.158212 -19977.518358 -17139.449720      0.002909                    
P  9  -4615.829357 -18477.583993  17926.598150    271.706518                    
V  9  11269.138754 -21059.757148 -18395.204953      0.027196                    
P 10 -18996.267361 -10245.848361 -16057.120571    -96.137224                    
V 10  19512.175025  -3395.603911 -20907.020319     -0.013616                    
P 11  13021.669481 -18720.736094  12947.825057   -423.831918                    
V 11   1904.893865  17899.568687  23384.501313     -0.034741                    
P 12 -19135.819957  10885.463453 -14755.365380    158.974447                    
V 12 -18749.677683   -571.849654  24168.021404      0.022123                    
P 13  -2416.277207 -22761.951491 -13478.483895     75.438823                    
V 13   9869.378025  13862.583644 -25562.845161     -0.037911                    
P 14  15572.205442  21302.485469  -3448.941883    214.691599                    
V 14    401.294064   5155.196420  31517.658716     -0.009416                    
P 15 -11764.180328  10389.719737  21386.719887   -139.320179                    
V 15 -16679.646585 -21642.697290   1601.723344     -0.018788                    
P 16  26724.949313   -318.350384  -1069.532890   -245.733050                    
V 16  -1236.856979   1773.578382 -32042.130652      0.008491                    
P 17 -15455.856831 -21670.478577  -1760.850560    -25.827373                    
V 17    707.630560  -3422.579801  31613.107980     -0.036984                    
P 18   2871.853415  15930.519507  21492.775978    276.496269                    
V 18 -26317.649595   2506.444684   1347.339880      0.020157                    
P 19  14188.928176  -5537.683054  21665.426356   -407.495566                    
V 19  13805.092949  24076.671032  -2453.891261     -0.027603                    
P 20  14273.203864 -14894.684099 -16866.172134    125.567561                    
V 20  21333.635273   -786.383610  19023.617442      0.026585                    
P 21    -33.784257  23224.027773  13001.350813   -320.940442                    
V 21  -9490.793681  13083.185316 -25012.839442     -0.018865                    
P 22  15696.391151  12129.835332  17929.182500    187.059912                    
V 22 -22162.193348   4055.048652  16700.590816      0.020266                    
P 23   5570.468687 -16604.994361 -19755.449250     44.073995                    
V 23  15611.665341  20125.436517 -12856.050773     -0.034567                    
P 24 -15398.331204  19947.518886   8304.790978    -14.557648                    
V 24   1869.269989 -10753.622789  29325.857036     -0.006641                    
P 25  -5663.176780  15015.310993 -21204.836459    152.073470                    
V 25 -26708.094814   1906.696282   8601.835187      0.039475                    
P 26 -17625.054242  -5616.588938  18541.374195    212.170228                    
V 26 -11252.581249 -22068.529877 -16502.083175      0.187259                    
P 27  19107.016944   5733.885922  17530.646834    -41.840548                    
V 27  11545.016704  19126.463216 -18812.451671     -0.043758                    
P 28 -11860.355167 -13183.805499  20417.739614    296.259635                    
V 28  24479.410748  -1438.995636  13524.084137      0.031214                    
P 29    640.213132  21344.662394 -15777.842995    474.401127                    
V 29 -12276.123892 -15990.699897 -22037.513748      0.030889                    
P 31  11433.521170   9729.165704 -21712.796942    326.817674                    
V 31 -12799.891857  24856.595228   4638.492516      0.007856                    
P 32  22761.342017  -7708.272219 -10585.562306   -545.182244                    
V 32  13827.295269   3149.649960  27693.863076      0.031943                    
EOF
